NORAD_CAT_ID,OBJECT_NAME,OBJECT_TYPE,EPOCH,MEAN_MOTION,ECCENTRICITY,INCLINATION,RA_OF_ASC_NODE,ARG_OF_PERICENTER,MEAN_ANOMALY,BSTAR,MEAN_MOTION_DOT,MEAN_MOTION_DDOT,TLE_LINE0,TLE_LINE1,TLE_LINE2,SEMIMAJOR_AXIS,PERIOD,APOGEE,PERIGEE,DECAYED
51895.0,STARLINK-3594,PAYLOAD,2023-10-01 15:57:54,15.08874608,0.0001211,53.2188,34.5946,79.7423,280.3706,0.00045217,6.922e-05,0.0,0 STARLINK-3594,1 51895U 22022AV  23274.66521852  .00006922  00000-0  45217-3 0  9990,2 51895  53.2188  34.5946 0001211  79.7423 280.3706 15.08874608 88880,6917.775,95.435,540.477,538.802,0.0
51895.0,STARLINK-3594,PAYLOAD,2023-10-02 07:51:47,15.08836437,0.0001087,53.2186,31.6209,99.6455,260.466,-0.00020377,-3.529e-05,0.0,0 STARLINK-3594,1 51895U 22022AV  23275.32763736 -.00003529  00000-0 -20377-3 0  9995,2 51895  53.2186  31.6209 0001087  99.6455 260.4660 15.08836437 88982,6917.891,95.438,540.508,539.004,0.0
51895.0,STARLINK-3594,PAYLOAD,2023-10-02 14:13:20,15.08835093,0.000131,53.2183,30.4317,92.1932,267.921,-0.00018904,-3.295e-05,0.0,0 STARLINK-3594,1 51895U 22022AV  23275.59259919 -.00003295  00000-0 -18904-3 0  9990,2 51895  53.2183  30.4317 0001310  92.1932 267.9210 15.08835093 89029,6917.895,95.438,540.667,538.854,0.0
51895.0,STARLINK-3594,PAYLOAD,2023-10-03 10:53:21,15.08843126,0.0001687,53.2178,26.5686,91.4894,268.6291,1.4102e-05,-6.4e-07,0.0,0 STARLINK-3594,1 51895U 22022AV  23276.45371905 -.00000064  00000-0  14102-4 0  9993,2 51895  53.2178  26.5686 0001687  91.4894 268.6291 15.08843126 89151,6917.871,95.437,540.903,538.569,0.0
51895.0,STARLINK-3594,PAYLOAD,2023-10-03 14:04:07,15.08847576,0.0001543,53.2187,25.9733,89.906,270.2109,0.00014586,2.035e-05,0.0,0 STARLINK-3594,1 51895U 22022AV  23276.58619646  .00002035  00000-0  14586-3 0  9998,2 51895  53.2187  25.9733 0001543  89.9060 270.2109 15.08847576 89177,6917.857,95.437,540.79,538.655,0.0
51895.0,STARLINK-3594,PAYLOAD,2023-10-04 13:54:53,15.08865393,0.0001418,53.2186,21.5134,83.8363,276.279,0.0006091,9.426e-05,0.0,0 STARLINK-3594,1 51895U 22022AV  23277.57978795  .00009426  00000-0  60910-3 0  9994,2 51895  53.2186  21.5134 0001418  83.8363 276.2790 15.08865393 89329,6917.803,95.436,540.649,538.687,0.0
51895.0,STARLINK-3594,PAYLOAD,2023-10-04 17:05:39,15.08871211,0.0001495,53.2187,20.9185,86.9853,273.131,0.00066223,0.00010276,0.0,0 STARLINK-3594,1 51895U 22022AV  23277.71226193  .00010276  00000-0  66223-3 0  9996,2 51895  53.2187  20.9185 0001495  86.9853 273.1310 15.08871211 89344,6917.785,95.436,540.684,538.616,0.0
51895.0,STARLINK-3594,PAYLOAD,2023-10-05 07:24:09,15.08828209,0.0001814,53.2175,18.2426,103.0545,257.0649,-0.00020476,-3.544e-05,0.0,0 STARLINK-3594,1 51895U 22022AV  23278.30844457 -.00003544  00000-0 -20476-3 0  9993,2 51895  53.2175  18.2426 0001814 103.0545 257.0649 15.08828209 89438,6917.916,95.438,541.036,538.527,0.0
51895.0,STARLINK-3594,PAYLOAD,2023-10-05 13:45:41,15.08837401,0.000133,53.2168,17.0526,96.4772,263.6371,-2.263e-05,-6.48e-06,0.0,0 STARLINK-3594,1 51895U 22022AV  23278.57340139 -.00000648  00000-0 -22630-4 0  9997,2 51895  53.2168  17.0526 0001330  96.4772 263.6371 15.08837401 89471,6917.888,95.438,540.673,538.833,0.0
51895.0,STARLINK-3594,PAYLOAD,2023-10-06 13:36:29,15.08837529,0.0001418,53.2184,12.5948,89.3781,270.7373,-9.1779e-05,-1.748e-05,0.0,0 STARLINK-3594,1 51895U 22022AV  23279.56700488 -.00001748  00000-0 -91779-4 0  9996,2 51895  53.2184  12.5948 0001418  89.3781 270.7373 15.08837529 89624,6917.888,95.438,540.734,538.772,0.0
51895.0,STARLINK-3594,PAYLOAD,2023-10-06 23:08:47,15.08839726,0.0001397,53.2183,10.8101,88.1639,271.9513,-6.7202e-05,-1.357e-05,0.0,0 STARLINK-3594,1 51895U 22022AV  23279.96444437 -.00001357  00000-0 -67202-4 0  9999,2 51895  53.2183  10.8101 0001397  88.1639 271.9513 15.08839726 89686,6917.881,95.438,540.713,538.78,0.0
51895.0,STARLINK-3594,PAYLOAD,2023-10-07 13:27:16,15.08849925,0.0001312,53.2175,8.133,87.5033,272.611,0.00038716,5.881e-05,0.0,0 STARLINK-3594,1 51895U 22022AV  23280.56060483  .00005881  00000-0  38716-3 0  9993,2 51895  53.2175   8.1330 0001312  87.5033 272.6110 15.08849925 89772,6917.85,95.437,540.623,538.807,0.0
51895.0,STARLINK-3594,PAYLOAD,2023-10-07 22:59:34,15.0885119,0.0001334,53.2177,6.3486,83.662,276.4524,0.00036799,5.575e-05,0.0,0 STARLINK-3594,1 51895U 22022AV  23280.95804322  .00005575  00000-0  36799-3 0  9993,2 51895  53.2177   6.3486 0001334  83.6620 276.4524 15.08851190 89834,6917.846,95.437,540.634,538.788,0.0
51895.0,STARLINK-3594,PAYLOAD,2023-10-08 13:18:02,15.08864766,0.0001691,53.2184,3.6739,82.8473,277.2712,0.00042185,6.437e-05,0.0,0 STARLINK-3594,1 51895U 22022AV  23281.55419342  .00006437  00000-0  42185-3 0  9998,2 51895  53.2184   3.6739 0001691  82.8473 277.2712 15.08864766 89927,6917.805,95.436,540.839,538.5,0.0
51895.0,STARLINK-3594,PAYLOAD,2023-10-08 22:50:21,15.08849648,0.0001701,53.2178,1.8893,87.5347,272.584,0.00014072,1.953e-05,0.0,0 STARLINK-3594,1 51895U 22022AV  23281.95163935  .00001953  00000-0  14072-3 0  9998,2 51895  53.2178   1.8893 0001701  87.5347 272.5840 15.08849648 89983,6917.851,95.437,540.893,538.539,0.0
51895.0,STARLINK-3594,PAYLOAD,2023-10-09 05:11:54,15.08825614,0.0001724,53.218,0.6991,92.4299,267.689,-0.00045617,-7.538e-05,0.0,0 STARLINK-3594,1 51895U 22022AV  23282.21660630 -.00007538  00000-0 -45617-3 0  9998,2 51895  53.2180   0.6991 0001724  92.4299 267.6890 15.08825614 90022,6917.924,95.438,540.982,538.597,0.0
51895.0,STARLINK-3594,PAYLOAD,2023-10-09 11:33:27,15.08831633,0.0001588,53.2164,359.5097,96.4359,263.6814,-0.0003274,-5.494e-05,0.0,0 STARLINK-3594,1 51895U 22022AV  23282.48156341 -.00005494  00000-0 -32740-3 0  9998,2 51895  53.2164 359.5097 0001588  96.4359 263.6814 15.08831633 90060,6917.906,95.438,540.87,538.672,0.0
51895.0,STARLINK-3594,PAYLOAD,2023-10-10 11:24:14,15.08845139,0.0001838,53.2179,355.0493,94.8394,265.2808,0.00043332,6.616e-05,0.0,0 STARLINK-3594,1 51895U 22022AV  23283.47516594  .00006616  00000-0  43332-3 0  9992,2 51895  53.2179 355.0493 0001838  94.8394 265.2808 15.08845139 90210,6917.865,95.437,541.001,538.458,0.0
51895.0,STARLINK-3594,PAYLOAD,2023-10-11 11:15:02,15.08835354,0.0001551,53.2183,350.5889,97.5581,262.5587,0.00050177,7.706e-05,0.0,0 STARLINK-3594,1 51895U 22022AV  23284.46877877  .00007706  00000-0  50177-3 0  9992,2 51895  53.2183 350.5889 0001551  97.5581 262.5587 15.08835354 90362,6917.895,95.438,540.833,538.687,0.0
51895.0,STARLINK-3594,PAYLOAD,2023-10-12 14:16:35,15.08859264,0.0001591,53.2172,345.5337,84.4769,275.6405,0.0015571,0.00024593,0.0,0 STARLINK-3594,1 51895U 22022AV  23285.59485810  .00024593  00000-0  15571-2 0  9990,2 51895  53.2172 345.5337 0001591  84.4769 275.6405 15.08859264 90538,6917.822,95.436,540.787,538.586,0.0
51895.0,STARLINK-3594,PAYLOAD,2023-10-13 04:35:04,15.08846049,0.0001896,53.2172,342.8551,81.5387,278.582,0.00030167,4.517e-05,0.0,0 STARLINK-3594,1 51895U 22022AV  23286.19101897  .00004517  00000-0  30167-3 0  9990,2 51895  53.2172 342.8551 0001896  81.5387 278.5820 15.08846049 90628,6917.862,95.437,541.039,538.415,0.0
51895.0,STARLINK-3594,PAYLOAD,2023-10-13 10:56:36,15.08854722,0.000144,53.2163,341.6659,84.7144,275.4013,0.00053954,8.313e-05,0.0,0 STARLINK-3594,1 51895U 22022AV  23286.45597562  .00008313  00000-0  53954-3 0  9994,2 51895  53.2163 341.6659 0001440  84.7144 275.4013 15.08854722 90666,6917.835,95.437,540.697,538.704,0.0
51895.0,STARLINK-3594,PAYLOAD,2023-10-13 20:28:54,15.08859087,0.0001428,53.2165,339.884,80.4322,279.6831,0.00068533,0.00010642,0.0,0 STARLINK-3594,1 51895U 22022AV  23286.85341371  .00010642  00000-0  68533-3 0  9990,2 51895  53.2165 339.8840 0001428  80.4322 279.6831 15.08859087 90726,6917.822,95.436,540.675,538.699,0.0
51895.0,STARLINK-3594,PAYLOAD,2023-10-14 10:47:22,15.08853561,0.0001643,53.2177,337.2113,91.6978,268.4202,0.00022212,3.25e-05,0.0,0 STARLINK-3594,1 51895U 22022AV  23287.44957170  .00003250  00000-0  22212-3 0  9997,2 51895  53.2177 337.2113 0001643  91.6978 268.4202 15.08853561 90813,6917.839,95.437,540.841,538.567,0.0
51895.0,STARLINK-3594,PAYLOAD,2023-10-14 13:58:08,15.08858896,0.0001587,53.2163,336.6141,90.0332,270.0842,0.00035665,5.396e-05,0.0,0 STARLINK-3594,1 51895U 22022AV  23287.58204837  .00005396  00000-0  35665-3 0  9996,2 51895  53.2163 336.6141 0001587  90.0332 270.0842 15.08858896 90833,6917.823,95.436,540.785,538.59,0.0
51895.0,STARLINK-3594,PAYLOAD,2023-10-14 20:19:42,15.08828398,0.0001828,53.2167,335.4233,87.1244,272.9958,-0.00021175,-3.656e-05,0.0,0 STARLINK-3594,1 51895U 22022AV  23287.84701883 -.00003656  00000-0 -21175-3 0  9998,2 51895  53.2167 335.4233 0001828  87.1244 272.9958 15.08828398 90870,6917.916,95.438,541.045,538.516,0.0
51895.0,STARLINK-3594,PAYLOAD,2023-10-15 12:13:34,15.08831356,0.000163,53.2171,332.4504,89.9901,270.1278,-8.9241e-05,-1.708e-05,0.0,0 STARLINK-3594,1 51895U 22022AV  23288.50942564 -.00001708  00000-0 -89241-4 0  9990,2 51895  53.2171 332.4504 0001630  89.9901 270.1278 15.08831356 90978,6917.907,95.438,540.899,538.644,0.0
51895.0,STARLINK-3594,PAYLOAD,2023-10-15 20:10:30,15.08830788,0.0001708,53.2176,330.9638,88.7292,271.3895,-5.9534e-06,-3.83e-06,0.0,0 STARLINK-3594,1 51895U 22022AV  23288.84062684 -.00000383  00000-0 -59534-5 0  9994,2 51895  53.2176 330.9638 0001708  88.7292 271.3895 15.08830788 91023,6917.909,95.438,540.955,538.592,0.0
51895.0,STARLINK-3594,PAYLOAD,2023-10-16 08:53:34,15.08845548,0.0001506,53.2159,328.5847,89.2002,270.9162,0.00031223,4.685e-05,0.0,0 STARLINK-3594,1 51895U 22022AV  23289.37054367  .00004685  00000-0  31223-3 0  9992,2 51895  53.2159 328.5847 0001506  89.2002 270.9162 15.08845548 91101,6917.863,95.437,540.77,538.687,0.0
51895.0,STARLINK-3594,PAYLOAD,2023-10-16 12:04:21,15.08851386,0.0001577,53.2161,327.9901,89.2207,270.8965,0.00064429,9.984e-05,0.0,0 STARLINK-3594,1 51895U 22022AV  23289.50302421  .00009984  00000-0  64429-3 0  9995,2 51895  53.2161 327.9901 0001577  89.2207 270.8965 15.08851386 91122,6917.846,95.437,540.802,538.62,0.0
